[
    {
        "Altitude(m)": 707458.0558656282,
        "Argument of Periapsis(deg)": 0.009112096949301655,
        "Eccentricity": 0.0,
        "Inclination(deg)": 45.0,
        "Latitude(deg)": -17.938117679189624,
        "Longitude(deg)": -51.82988879377433,
        "Mean Anomaly(deg)": -154.40982668201536,
        "RAAN(deg)": 209.99139844683344,
        "Satellite Name": "Constellation 1 936",
        "Satellite Number": 936,
        "Semi-Major Axis(m)": 7083131.272910544,
        "Time(s)": 152
    },
    {
        "Altitude(m)": 707470.7005050917,
        "Argument of Periapsis(deg)": 0.009172044955547059,
        "Eccentricity": 0.0,
        "Inclination(deg)": 45.0,
        "Latitude(deg)": -17.978950901061832,
        "Longitude(deg)": -51.78671139625068,
        "Mean Anomaly(deg)": -154.34912554176543,
        "RAAN(deg)": 209.9913418576679,
        "Satellite Name": "Constellation 1 936",
        "Satellite Number": 936,
        "Semi-Major Axis(m)": 7083131.272910544,
        "Time(s)": 153
    },
    {
        "Altitude(m)": 707483.3553413134,
        "Argument of Periapsis(deg)": 0.009231992961792466,
        "Eccentricity": 0.0,
        "Inclination(deg)": 45.0,
        "Latitude(deg)": -18.019772327125075,
        "Longitude(deg)": -51.743512381529676,
        "Mean Anomaly(deg)": -154.2884244015155,
        "RAAN(deg)": 209.99128526850228,
        "Satellite Name": "Constellation 1 936",
        "Satellite Number": 936,
        "Semi-Major Axis(m)": 7083131.272910544,
        "Time(s)": 154
    },
    {
        "Altitude(m)": 707496.0203342197,
        "Argument of Periapsis(deg)": 0.009291940968037872,
        "Eccentricity": 0.0,
        "Inclination(deg)": 45.0,
        "Latitude(deg)": -18.060581923963582,
        "Longitude(deg)": -51.70029169322909,
        "Mean Anomaly(deg)": -154.22772326126568,
        "RAAN(deg)": 209.99122867933673,
        "Satellite Name": "Constellation 1 936",
        "Satellite Number": 936,
        "Semi-Major Axis(m)": 7083131.272910544,
        "Time(s)": 155
    },
    {
        "Altitude(m)": 707508.6954436753,
        "Argument of Periapsis(deg)": 0.009351888974283276,
        "Eccentricity": 0.0,
        "Inclination(deg)": 45.0,
        "Latitude(deg)": -18.101379658119818,
        "Longitude(deg)": -51.65704944303375,
        "Mean Anomaly(deg)": -154.16702212101578,
        "RAAN(deg)": 209.99117209017115,
        "Satellite Name": "Constellation 1 936",
        "Satellite Number": 936,
        "Semi-Major Axis(m)": 7083131.272910544,
        "Time(s)": 156
    },
    {
        "Altitude(m)": 707521.3806294946,
        "Argument of Periapsis(deg)": 0.00941183698052868,
        "Eccentricity": 0.0,
        "Inclination(deg)": 45.0,
        "Latitude(deg)": -18.14216549609325,
        "Longitude(deg)": -51.61378523830753,
        "Mean Anomaly(deg)": -154.10632098076584,
        "RAAN(deg)": 209.9911155010056,
        "Satellite Name": "Constellation 1 936",
        "Satellite Number": 936,
        "Semi-Major Axis(m)": 7083131.272910544,
        "Time(s)": 157
    },
    {
        "Altitude(m)": 707534.0758514393,
        "Argument of Periapsis(deg)": 0.009471784986774088,
        "Eccentricity": 0.0,
        "Inclination(deg)": 45.0,
        "Latitude(deg)": -18.182939404341415,
        "Longitude(deg)": -51.57049919067597,
        "Mean Anomaly(deg)": -154.04561984051597,
        "RAAN(deg)": 209.99105891184004,
        "Satellite Name": "Constellation 1 936",
        "Satellite Number": 936,
        "Semi-Major Axis(m)": 7083131.272910544,
        "Time(s)": 158
    },
    {
        "Altitude(m)": 707546.781069218,
        "Argument of Periapsis(deg)": 0.009531732993019492,
        "Eccentricity": 0.0,
        "Inclination(deg)": 45.0,
        "Latitude(deg)": -18.2237013492793,
        "Longitude(deg)": -51.52719124363764,
        "Mean Anomaly(deg)": -153.98491870026604,
        "RAAN(deg)": 209.99100232267443,
        "Satellite Name": "Constellation 1 936",
        "Satellite Number": 936,
        "Semi-Major Axis(m)": 7083131.272910544,
        "Time(s)": 159
    },
    {
        "Altitude(m)": 707559.4962424865,
        "Argument of Periapsis(deg)": 0.009591680999264898,
        "Eccentricity": 0.0,
        "Inclination(deg)": 45.0,
        "Latitude(deg)": -18.26445129727909,
        "Longitude(deg)": -51.483861340661434,
        "Mean Anomaly(deg)": -153.9242175600162,
        "RAAN(deg)": 209.99094573350888,
        "Satellite Name": "Constellation 1 936",
        "Satellite Number": 936,
        "Semi-Major Axis(m)": 7083131.272910544,
        "Time(s)": 160
    },
    {
        "Altitude(m)": 707572.2213308405,
        "Argument of Periapsis(deg)": 0.009651629005510304,
        "Eccentricity": 0.0,
        "Inclination(deg)": 45.0,
        "Latitude(deg)": -18.30518921467042,
        "Longitude(deg)": -51.440509425186534,
        "Mean Anomaly(deg)": -153.86351641976623,
        "RAAN(deg)": 209.99088914434333,
        "Satellite Name": "Constellation 1 936",
        "Satellite Number": 936,
        "Semi-Major Axis(m)": 7083131.272910544,
        "Time(s)": 161
    },
    {
        "Altitude(m)": 707584.9562938341,
        "Argument of Periapsis(deg)": 0.00971157701175571,
        "Eccentricity": 0.0,
        "Inclination(deg)": 45.0,
        "Latitude(deg)": -18.345915067739817,
        "Longitude(deg)": -51.397135440622726,
        "Mean Anomaly(deg)": -153.80281527951635,
        "RAAN(deg)": 209.99083255517775,
        "Satellite Name": "Constellation 1 936",
        "Satellite Number": 936,
        "Semi-Major Axis(m)": 7083131.272910544,
        "Time(s)": 162
    },
    {
        "Altitude(m)": 707597.7010909576,
        "Argument of Periapsis(deg)": 0.009771525018001118,
        "Eccentricity": 0.0,
        "Inclination(deg)": 45.0,
        "Latitude(deg)": -18.386628822731193,
        "Longitude(deg)": -51.35373949844698,
        "Mean Anomaly(deg)": -153.74211413926645,
        "RAAN(deg)": 209.9907759660122,
        "Satellite Name": "Constellation 1 936",
        "Satellite Number": 936,
        "Semi-Major Axis(m)": 7083131.272910544,
        "Time(s)": 163
    },
    {
        "Altitude(m)": 707610.4556816602,
        "Argument of Periapsis(deg)": 0.00983147302424652,
        "Eccentricity": 0.0,
        "Inclination(deg)": 45.0,
        "Latitude(deg)": -18.42733044584473,
        "Longitude(deg)": -51.31032120581559,
        "Mean Anomaly(deg)": -153.68141299901657,
        "RAAN(deg)": 209.9907193768466,
        "Satellite Name": "Constellation 1 936",
        "Satellite Number": 936,
        "Semi-Major Axis(m)": 7083131.272910544,
        "Time(s)": 164
    },
    {
        "Altitude(m)": 707623.2200253286,
        "Argument of Periapsis(deg)": 0.009891421030491928,
        "Eccentricity": 0.0,
        "Inclination(deg)": 45.0,
        "Latitude(deg)": -18.468019903238037,
        "Longitude(deg)": -51.266880674146535,
        "Mean Anomaly(deg)": -153.62071185876664,
        "RAAN(deg)": 209.99066278768106,
        "Satellite Name": "Constellation 1 936",
        "Satellite Number": 936,
        "Semi-Major Axis(m)": 7083131.272910544,
        "Time(s)": 165
    },
    {
        "Altitude(m)": 707635.9940813044,
        "Argument of Periapsis(deg)": 0.009951369036737332,
        "Eccentricity": 0.0,
        "Inclination(deg)": 45.0,
        "Latitude(deg)": -18.5086971610251,
        "Longitude(deg)": -51.22341784673127,
        "Mean Anomaly(deg)": -153.5600107185168,
        "RAAN(deg)": 209.99060619851548,
        "Satellite Name": "Constellation 1 936",
        "Satellite Number": 936,
        "Semi-Major Axis(m)": 7083131.272910544,
        "Time(s)": 166
    },
    {
        "Altitude(m)": 707648.7778088688,
        "Argument of Periapsis(deg)": 0.010011317042982738,
        "Eccentricity": 0.0,
        "Inclination(deg)": 45.0,
        "Latitude(deg)": -18.549362185276618,
        "Longitude(deg)": -51.17993266683169,
        "Mean Anomaly(deg)": -153.49930957826683,
        "RAAN(deg)": 209.9905496093499,
        "Satellite Name": "Constellation 1 936",
        "Satellite Number": 936,
        "Semi-Major Axis(m)": 7083131.272910544,
        "Time(s)": 167
    },
    {
        "Altitude(m)": 707661.5711672605,
        "Argument of Periapsis(deg)": 0.010071265049228144,
        "Eccentricity": 0.0,
        "Inclination(deg)": 45.0,
        "Latitude(deg)": -18.59001494201945,
        "Longitude(deg)": -51.136425077680464,
        "Mean Anomaly(deg)": -153.43860843801698,
        "RAAN(deg)": 209.99049302018435,
        "Satellite Name": "Constellation 1 936",
        "Satellite Number": 936,
        "Semi-Major Axis(m)": 7083131.272910544,
        "Time(s)": 168
    },
    {
        "Altitude(m)": 707674.374115668,
        "Argument of Periapsis(deg)": 0.01013121305547355,
        "Eccentricity": 0.0,
        "Inclination(deg)": 45.0,
        "Latitude(deg)": -18.630655397237202,
        "Longitude(deg)": -51.092895022480526,
        "Mean Anomaly(deg)": -153.37790729776705,
        "RAAN(deg)": 209.9904364310188,
        "Satellite Name": "Constellation 1 936",
        "Satellite Number": 936,
        "Semi-Major Axis(m)": 7083131.272910544,
        "Time(s)": 169
    },
    {
        "Altitude(m)": 707687.1866132084,
        "Argument of Periapsis(deg)": 0.010191161061718957,
        "Eccentricity": 0.0,
        "Inclination(deg)": 45.0,
        "Latitude(deg)": -18.67128351686929,
        "Longitude(deg)": -51.04934244440601,
        "Mean Anomaly(deg)": -153.31720615751718,
        "RAAN(deg)": 209.9903798418532,
        "Satellite Name": "Constellation 1 936",
        "Satellite Number": 936,
        "Semi-Major Axis(m)": 7083131.272910544,
        "Time(s)": 170
    }
]